     2.100          NAVIGATION                              RINEX VERSION / TYPE
fic2rin                                 07/14/2010 00:04:45 PGM / RUN BY / DATE
                                                            END OF HEADER
17 10  7 13  2  0  0.0  .161553267390D-03  .193267624127D-11  .000000000000D+00
     .800000000000D+01 -.145000000000D+02  .445089968355D-08 -.194654262079D+01
    -.728294253349D-06  .548462860752D-02  .124648213387D-04  .515363472557D+04
     .180000000000D+06  .391155481339D-07 -.253166009572D+01 -.465661287308D-07
     .960521345158D+00  .138156250000D+03 -.250066773295D+01 -.777746681985D-08
     .607882463602D-09  .100000000000D+01  .159200000000D+04  .000000000000D+00
     .240000000000D+01  .000000000000D+00 -.102445483208D-07  .800000000000D+01
     .172806000000D+06  .400000000000D+01
18 10  7 13  2  0  0.0  .804453156888D-04  .238742359215D-11  .000000000000D+00
     .340000000000D+02 -.283125000000D+02  .526236205565D-08 -.516077784528D+00
    -.154040753841D-05  .116667064140D-01  .908412039280D-05  .515370092392D+04
     .180000000000D+06  .521540641785D-07 -.439042870846D+00  .163912773132D-06
     .936874664179D+00  .192031250000D+03 -.232306812932D+01 -.850285417801D-08
    -.869679082767D-09  .100000000000D+01  .159200000000D+04  .000000000000D+00
     .240000000000D+01  .000000000000D+00 -.107102096081D-07  .340000000000D+02
     .172806000000D+06  .400000000000D+01
19 10  7 13  2  0  0.0 -.492352992296D-04 -.295585778076D-11  .000000000000D+00
     .520000000000D+02 -.126250000000D+02  .447125767440D-08 -.265783630900D+01
    -.601634383202D-06  .666205375455D-02  .122711062431D-04  .515376591110D+04
     .180000000000D+06 -.122934579849D-06 -.247676830362D+01 -.298023223877D-07
     .958084486442D+00  .144125000000D+03 -.123743917402D+00 -.773925094229D-08
     .572166690182D-09  .100000000000D+01  .159200000000D+04  .000000000000D+00
     .240000000000D+01  .000000000000D+00 -.149011611938D-07  .520000000000D+02
     .172806000000D+06  .400000000000D+01
20 10  7 13  2  0  0.0  .534364953637D-04 -.454747350886D-12  .000000000000D+00
     .430000000000D+02 -.357812500000D+02  .521450291926D-08 -.297327227204D+00
    -.186078250408D-05  .414509465918D-02  .883452594280D-05  .515357371902D+04
     .180000000000D+06 -.633299350739D-07 -.492977765314D+00  .242143869400D-07
     .936743003015D+00  .194812500000D+03  .132239519809D+01 -.841963642594D-08
    -.761460289306D-09  .100000000000D+01  .159200000000D+04  .000000000000D+00
     .240000000000D+01  .000000000000D+00 -.791624188423D-08  .430000000000D+02
     .172806000000D+06  .400000000000D+01
21 10  7 13  2  0  0.0 -.735409557819D-04 -.261479726760D-11  .000000000000D+00
     .380000000000D+02  .247812500000D+02  .590703176587D-08  .597435035967D+00
     .158883631229D-05  .167386860121D-01  .480934977531D-05  .515364461136D+04
     .180000000000D+06 -.819563865662D-07 -.149578383591D+01  .186264514923D-06
     .931928397713D+00  .269718750000D+03 -.246117243533D+01 -.893144345904D-08
     .439304013061D-10  .100000000000D+01  .159200000000D+04  .000000000000D+00
     .240000000000D+01  .000000000000D+00 -.121071934700D-07  .380000000000D+02
     .172806000000D+06  .400000000000D+01
22 10  7 13  2  0  0.0  .167679507285D-03 -.795807864051D-12  .000000000000D+00
     .500000000000D+02 -.324062500000D+02  .518128724998D-08 -.143243599256D+01
    -.184774398804D-05  .546577270143D-02  .935047864914D-05  .515371130943D+04
     .180000000000D+06  .145286321640D-06 -.434230890020D+00  .931322574615D-07
     .934562342216D+00  .186437500000D+03 -.194719636523D+01 -.827498754359D-08
    -.898966016972D-09  .100000000000D+01  .159200000000D+04  .000000000000D+00
     .240000000000D+01  .000000000000D+00 -.176951289177D-07  .500000000000D+02
     .172806000000D+06  .400000000000D+01
23 10  7 13  2  0  0.0  .363228376955D-03 -.159161572810D-11  .000000000000D+00
     .650000000000D+02  .123781250000D+03  .389944814195D-08  .312542756827D+01
     .642426311970D-05  .687988917343D-02  .108070671558D-04  .515367811966D+04
     .180000000000D+06 -.707805156708D-07  .594687138923D+00  .111758708954D-07
     .967829198817D+00  .175031250000D+03  .304345851279D+01 -.769389191005D-08
     .614311302817D-10  .100000000000D+01  .159200000000D+04  .000000000000D+00
     .240000000000D+01  .000000000000D+00 -.200234353542D-07  .650000000000D+02
     .172806000000D+06  .400000000000D+01
24 10  7 13  2  0  0.0  .303920358419D-03  .318323145621D-11  .000000000000D+00
     .510000000000D+02  .228750000000D+02  .533450791795D-08 -.233456332704D+01
     .108778476715D-05  .568732293323D-02  .499747693539D-05  .515482053947D+04
     .180000000000D+06 -.191852450371D-06 -.145644399236D+01  .242143869400D-07
     .948533329832D+00  .274406250000D+03 -.458404974910D+00 -.836249118847D-08
     .130362572982D-09  .100000000000D+01  .159200000000D+04  .000000000000D+00
     .340000000000D+01  .000000000000D+00 -.139698386192D-08  .510000000000D+02
     .172806000000D+06  .400000000000D+01
26 10  7 13  2  0  0.0 -.804816372693D-04 -.602540239925D-11  .000000000000D+00
     .430000000000D+02  .154875000000D+03  .327799368445D-08  .258344922584D+01
     .776723027229D-05  .193304559216D-01  .108368694782D-04  .515238853073D+04
     .180000000000D+06  .188127160072D-06  .652902048928D+00 -.176951289177D-06
     .990480198733D+00  .181875000000D+03  .110470802421D+01 -.725280210832D-08
     .182150444440D-09  .100000000000D+01  .159200000000D+04  .000000000000D+00
     .240000000000D+01  .000000000000D+00 -.605359673500D-08  .430000000000D+02
     .172806000000D+06  .400000000000D+01
27 10  7 13  2  0  0.0  .169605016708D-03  .352429196937D-11  .000000000000D+00
     .570000000000D+02  .710937500000D+02  .425410577201D-08 -.237186778927D+01
     .396184623241D-05  .215391075471D-01 -.394880771637D-06  .515360996437D+04
     .180000000000D+06  .232830643654D-06  .158125550788D+01  .154599547386D-06
     .978499452647D+00  .389125000000D+03 -.139874320882D+01 -.811283793226D-08
     .420731810883D-09  .100000000000D+01  .159200000000D+04  .000000000000D+00
     .240000000000D+01  .000000000000D+00 -.419095158577D-08  .570000000000D+02
     .172806000000D+06  .400000000000D+01
28 10  7 13  2  0  0.0 -.107614323497D-04  .125055521494D-11  .000000000000D+00
     .420000000000D+02 -.135625000000D+03  .435518141079D-08 -.131273666914D+01
    -.673718750477D-05  .160177547950D-01  .732764601707D-05  .515367805481D+04
     .180000000000D+06  .154599547386D-06  .271665549487D+01  .372529029846D-06
     .971109511729D+00  .238375000000D+03 -.195056195895D+01 -.805497837932D-08
    -.215723271454D-09  .100000000000D+01  .159200000000D+04  .000000000000D+00
     .240000000000D+01  .000000000000D+00 -.107102096081D-07  .420000000000D+02
     .172806000000D+06  .400000000000D+01
29 10  7 13  2  0  0.0  .134107191116D-03  .272848410532D-11  .000000000000D+00
     .230000000000D+02 -.341875000000D+02  .446447167745D-08  .747454896051D+00
    -.168010592461D-05  .292920973152D-02  .127274543047D-04  .515371574402D+04
     .180000000000D+06 -.391155481339D-07 -.252338367473D+01  .745058059692D-08
     .960861093253D+00  .136687500000D+03 -.126444332807D+01 -.785925594098D-08
     .617882880159D-09  .100000000000D+01  .159200000000D+04  .000000000000D+00
     .240000000000D+01  .000000000000D+00 -.884756445885D-08  .230000000000D+02
     .172806000000D+06  .400000000000D+01
30 10  7 13  2  0  0.0  .260029453784D-03  .329691829393D-11  .000000000000D+00
     .980000000000D+02 -.150875000000D+03  .484305887570D-08 -.889148572516D+00
    -.764802098274D-05  .124429613352D-01  .592879951000D-05  .515371557045D+04
     .180000000000D+06 -.134110450745D-06  .263723023010D+01  .156462192535D-06
     .956933680472D+00  .269218750000D+03  .149008814139D+01 -.857285709391D-08
    -.245010205659D-09  .100000000000D+01  .159200000000D+04  .000000000000D+00
     .340000000000D+01  .000000000000D+00 -.791624188423D-08  .980000000000D+02
     .172806000000D+06  .400000000000D+01
31 10  7 13  2  0  0.0 -.248975120485D-04  .261479726760D-11  .000000000000D+00
     .440000000000D+02  .592812500000D+02  .436946772015D-08  .148549546953D+01
     .308640301228D-05  .734108034521D-02  .793486833572D-06  .515371992683D+04
     .180000000000D+06  .109896063805D-06  .163705570628D+01 -.670552253723D-07
     .977012459325D+00  .369593750000D+03 -.105040345766D+01 -.835713382245D-08
     .307869966877D-09  .100000000000D+01  .159200000000D+04  .000000000000D+00
     .240000000000D+01  .000000000000D+00 -.130385160446D-07  .440000000000D+02
     .172806000000D+06  .400000000000D+01
32 10  7 13  2  0  0.0 -.366186723113D-04 -.864019966684D-11  .000000000000D+00
     .160000000000D+02 -.298437500000D+02  .449947313540D-08  .227131025883D+01
    -.145658850670D-05  .126163418172D-01  .975467264652D-05  .515368892670D+04
     .180000000000D+06  .931322574615D-07 -.374820675003D+00  .931322574615D-07
     .958767242013D+00  .186781250000D+03 -.964432073358D+00 -.776282335275D-08
    -.882179603464D-09  .100000000000D+01  .159200000000D+04  .000000000000D+00
     .240000000000D+01  .000000000000D+00 -.325962901115D-08  .160000000000D+02
     .172806000000D+06  .400000000000D+01
 4 10  7 13  1 59 28.0  .123687088490D-03  .807176547823D-11  .000000000000D+00
     .470000000000D+02  .199375000000D+02  .574273920814D-08 -.693586328826D-01
     .111758708954D-05  .910707388539D-02  .433996319771D-05  .515370321655D+04
     .179968000000D+06  .130385160446D-07 -.150624526843D+01  .912696123123D-07
     .938362091988D+00  .280843750000D+03  .615179906038D+00 -.878715173443D-08
     .925038531568D-10  .100000000000D+01  .159200000000D+04  .000000000000D+00
     .240000000000D+01  .000000000000D+00 -.605359673500D-08  .470000000000D+02
     .173736000000D+06  .400000000000D+01
